OBJECT_NAME,OBJECT_ID,EPOCH,MEAN_MOTION,ECCENTRICITY,INCLINATION,RA_OF_ASC_NODE,ARG_OF_PERICENTER,MEAN_ANOMALY,EPHEMERIS_TYPE,CLASSIFICATION_TYPE,NORAD_CAT_ID,ELEMENT_SET_NO,REV_AT_EPOCH,BSTAR,MEAN_MOTION_DOT,MEAN_MOTION_DDOT
STARLINK-4260,2022-076A,2024-08-23T08:09:06.449472,15.08841135,.0001368,53.2151,103.0978,83.7021,276.4127,0,U,52986,999,11779,.13861E-4,-.67E-6,0
STARLINK-4259,2022-076B,2024-08-23T09:06:04.436928,15.08853847,.0001179,53.2169,112.9163,87.9042,272.2085,0,U,52987,999,11766,.22672E-3,.3324E-4,0
STARLINK-4291,2022-076C,2024-08-23T23:57:40.267008,15.08838643,.0001515,53.2163,100.1434,93.5663,266.5502,0,U,52988,999,11836,.1307E-3,.1793E-4,0
STARLINK-4293,2022-076D,2024-08-24T00:54:38.536992,15.08834431,.0001507,53.2172,109.9634,79.4331,280.6831,0,U,52989,999,11823,.16864E-3,.2397E-4,0
STARLINK-4286,2022-076E,2024-08-24T00:49:20.515872,15.08836525,.0001656,53.2159,109.9798,75.3051,284.8125,0,U,52990,999,11823,.40423E-4,.355E-5,0
STARLINK-4285,2022-076F,2024-08-24T00:44:02.652000,15.08836805,.0001257,53.2170,109.9986,85.6857,274.4279,0,U,52991,999,11823,.64329E-4,.736E-5,0
STARLINK-4269,2022-076G,2024-08-24T00:40:07.030560,15.08840355,.0001318,53.2151,110.0197,90.7480,269.3663,0,U,52992,999,11823,.6576E-4,.759E-5,0
STARLINK-4264,2022-076H,2024-08-23T23:52:22.374624,15.08837356,.0001382,53.2153,100.1577,98.7173,261.3976,0,U,52993,999,11836,.62742E-4,.711E-5,0
STARLINK-4256,2022-076J,2024-08-23T23:47:04.615296,15.08833979,.0002103,53.2186,100.1764,134.5066,225.6098,0,U,52994,999,11836,.38997E-4,.332E-5,0
STARLINK-4296,2022-076K,2024-08-23T15:39:32.637312,15.08845972,.0001531,53.2153,101.6936,76.0661,284.0501,0,U,52995,999,11831,.27856E-3,.4149E-4,0
STARLINK-4295,2022-076L,2024-08-23T14:47:58.853760,15.08842430,.0001426,53.2139,102.1349,93.1683,266.9473,0,U,52996,999,11830,.19714E-3,.2851E-4,0
STARLINK-4301,2022-076M,2024-08-24T04:14:38.736672,15.42485215,.0003131,53.2401,37.4677,219.6950,140.3828,0,U,52997,999,11929,.11819E-2,.51936E-3,0
STARLINK-4254,2022-076N,2024-08-23T21:45:11.192256,15.08843702,.0001043,53.2143,100.4675,30.1591,329.9461,0,U,52998,999,11835,.40838E-3,.6218E-4,0
STARLINK-4217,2022-076P,2024-08-23T18:23:49.157952,15.08838434,.000161,53.2140,101.1812,83.2008,276.9167,0,U,52999,999,11833,-.17578E-4,-.568E-5,0
STARLINK-4194,2022-076Q,2024-08-24T01:06:33.788160,15.08836122,.0001301,53.2163,99.9231,90.2460,269.8681,0,U,53000,999,11837,.48506E-4,.484E-5,0
STARLINK-4190,2022-076R,2024-08-23T08:46:12.691488,15.08831065,.0001191,53.2164,102.9817,84.7801,275.3327,0,U,53001,999,11780,.13154E-4,-.79E-6,0
STARLINK-4121,2022-076S,2024-08-23T21:50:29.496768,15.08833164,.0001268,53.2175,100.5413,92.7699,267.3438,0,U,53002,999,11835,.68231E-4,.798E-5,0
STARLINK-4255,2022-076T,2024-08-23T08:35:36.447936,15.08836408,.0001361,53.2152,103.0103,99.4660,260.6486,0,U,53003,999,11827,.25932E-3,.3841E-4,0
STARLINK-4253,2022-076U,2024-08-23T21:39:53.469216,15.08838767,.0001547,53.2145,100.5682,102.9826,257.1339,0,U,53004,999,11835,.9457E-4,.1217E-4,0
STARLINK-4288,2022-076V,2024-08-23T14:51:51.205824,15.08839625,.000134,53.2146,101.8443,80.6620,279.4524,0,U,53005,999,11831,.9719E-4,.1259E-4,0
STARLINK-4290,2022-076W,2024-08-23T08:40:54.432768,15.08839025,.0001224,53.2153,102.9938,96.5127,263.6004,0,U,53006,999,11780,.28332E-3,.4224E-4,0
STARLINK-4215,2022-076X,2024-08-24T00:13:34.571424,15.08832688,.0001306,53.2167,100.0924,89.4582,270.6560,0,U,53007,999,11837,.89368E-4,.1134E-4,0
STARLINK-4275,2022-076Y,2024-08-24T00:18:51.732864,15.08842941,.0000997,53.2148,100.0624,85.8300,274.2806,0,U,53008,999,11837,.13635E-3,.1883E-4,0
STARLINK-4277,2022-076Z,2024-08-23T14:21:22.817664,15.08837322,.0001144,53.2139,91.9357,92.7208,267.3915,0,U,53009,999,11797,.61401E-4,.689E-5,0
STARLINK-4263,2022-076AA,2024-08-24T01:17:06.619776,15.08840209,.0001471,53.2162,99.6232,92.7447,267.3714,0,U,53010,999,11838,.96722E-4,.1252E-4,0
STARLINK-4265,2022-076AB,2024-08-23T14:16:04.654848,15.08841466,.0001166,53.2154,91.9567,99.1769,260.9355,0,U,53011,999,11844,.12132E-3,.1644E-4,0
STARLINK-4271,2022-076AC,2024-08-23T08:14:24.919008,15.08836808,.0001367,53.2154,103.0843,90.4594,269.6555,0,U,53012,999,11780,.91709E-4,.1172E-4,0
STARLINK-4177,2022-076AD,2024-08-23T23:37:48.087840,15.08838111,.0001455,53.2159,90.2012,79.5957,280.5199,0,U,53013,999,11850,.85369E-4,.1071E-4,0
STARLINK-4183,2022-076AE,2024-08-23T08:05:07.505088,15.08851183,.0001374,53.2167,93.1077,87.8851,272.2299,0,U,53014,999,11793,.1053E-3,.1389E-4,0
