STARLINK-4260           
1 52986U 22076A   24236.33965798 -.00000067  00000+0  13861-4 0  9990
2 52986  53.2151 103.0978 0001368  83.7021 276.4127 15.08841135117796
STARLINK-4259           
1 52987U 22076B   24236.37921802  .00003324  00000+0  22672-3 0  9990
2 52987  53.2169 112.9163 0001179  87.9042 272.2085 15.08853847117666
STARLINK-4291           
1 52988U 22076C   24236.99838272  .00001793  00000+0  13070-3 0  9997
2 52988  53.2163 100.1434 0001515  93.5663 266.5502 15.08838643118362
STARLINK-4293           
1 52989U 22076D   24237.03794603  .00002397  00000+0  16864-3 0  9998
2 52989  53.2172 109.9634 0001507  79.4331 280.6831 15.08834431118237
STARLINK-4286           
1 52990U 22076E   24237.03426523  .00000355  00000+0  40423-4 0  9994
2 52990  53.2159 109.9798 0001656  75.3051 284.8125 15.08836525118232
STARLINK-4285           
1 52991U 22076F   24237.03058625  .00000736  00000+0  64329-4 0  9993
2 52991  53.2170 109.9986 0001257  85.6857 274.4279 15.08836805118236
STARLINK-4269           
1 52992U 22076G   24237.02785915  .00000759  00000+0  65760-4 0  9997
2 52992  53.2151 110.0197 0001318  90.7480 269.3663 15.08840355118235
STARLINK-4264           
1 52993U 22076H   24236.99470341  .00000711  00000+0  62742-4 0  9992
2 52993  53.2153 100.1577 0001382  98.7173 261.3976 15.08837356118368
STARLINK-4256           
1 52994U 22076J   24236.99102564  .00000332  00000+0  38997-4 0  9996
2 52994  53.2186 100.1764 0002103 134.5066 225.6098 15.08833979118360
STARLINK-4296           
1 52995U 22076K   24236.65246108  .00004149  00000+0  27856-3 0  9994
2 52995  53.2153 101.6936 0001531  76.0661 284.0501 15.08845972118316
STARLINK-4295           
1 52996U 22076L   24236.61665340  .00002851  00000+0  19714-3 0  9996
2 52996  53.2139 102.1349 0001426  93.1683 266.9473 15.08842430118304
STARLINK-4301           
1 52997U 22076M   24237.17683723  .00051936  00000+0  11819-2 0  9999
2 52997  53.2401  37.4677 0003131 219.6950 140.3828 15.42485215119298
STARLINK-4254           
1 52998U 22076N   24236.90637954  .00006218  00000+0  40838-3 0  9992
2 52998  53.2143 100.4675 0001043  30.1591 329.9461 15.08843702118353
STARLINK-4217           
1 52999U 22076P   24236.76654118 -.00000568  00000+0 -17578-4 0  9998
2 52999  53.2140 101.1812 0001610  83.2008 276.9167 15.08838434118332
STARLINK-4194           
1 53000U 22076Q   24237.04622440  .00000484  00000+0  48506-4 0  9997
2 53000  53.2163  99.9231 0001301  90.2460 269.8681 15.08836122118375
STARLINK-4190           
1 53001U 22076R   24236.36542467 -.00000079  00000+0  13154-4 0  9994
2 53001  53.2164 102.9817 0001191  84.7801 275.3327 15.08831065117803
STARLINK-4121           
1 53002U 22076S   24236.91006362  .00000798  00000+0  68231-4 0  9998
2 53002  53.2175 100.5413 0001268  92.7699 267.3438 15.08833164118358
STARLINK-4255           
1 53003U 22076T   24236.35806074  .00003841  00000+0  25932-3 0  9997
2 53003  53.2152 103.0103 0001361  99.4660 260.6486 15.08836408118278
STARLINK-4253           
1 53004U 22076U   24236.90270219  .00001217  00000+0  94570-4 0  9995
2 53004  53.2145 100.5682 0001547 102.9826 257.1339 15.08838767118352
STARLINK-4288           
1 53005U 22076V   24236.61934266  .00001259  00000+0  97190-4 0  9990
2 53005  53.2146 101.8443 0001340  80.6620 279.4524 15.08839625118311
STARLINK-4290           
1 53006U 22076W   24236.36174112  .00004224  00000+0  28332-3 0  9995
2 53006  53.2153 102.9938 0001224  96.5127 263.6004 15.08839025117805
STARLINK-4215           
1 53007U 22076X   24237.00942791  .00001134  00000+0  89368-4 0  9998
2 53007  53.2167 100.0924 0001306  89.4582 270.6560 15.08832688118378
STARLINK-4275           
1 53008U 22076Y   24237.01309876  .00001883  00000+0  13635-3 0  9995
2 53008  53.2148 100.0624 0000997  85.8300 274.2806 15.08842941118374
STARLINK-4277           
1 53009U 22076Z   24236.59818076  .00000689  00000+0  61401-4 0  9993
2 53009  53.2139  91.9357 0001144  92.7208 267.3915 15.08837322117971
STARLINK-4263           
1 53010U 22076AA  24237.05354884  .00001252  00000+0  96722-4 0  9990
2 53010  53.2162  99.6232 0001471  92.7447 267.3714 15.08840209118385
STARLINK-4265           
1 53011U 22076AB  24236.59449832  .00001644  00000+0  12132-3 0  9994
2 53011  53.2154  91.9567 0001166  99.1769 260.9355 15.08841466118445
STARLINK-4271           
1 53012U 22076AC  24236.34334397  .00001172  00000+0  91709-4 0  9991
2 53012  53.2154 103.0843 0001367  90.4594 269.6555 15.08836808117802
STARLINK-4177           
1 53013U 22076AD  24236.98458435  .00001071  00000+0  85369-4 0  9995
2 53013  53.2159  90.2012 0001455  79.5957 280.5199 15.08838111118505
STARLINK-4183           
1 53014U 22076AE  24236.33689242  .00001389  00000+0  10530-3 0  9996
2 53014  53.2167  93.1077 0001374  87.8851 272.2299 15.08851183117932
